{
  "links" : {
    "next" : "https://api.nasa.gov/neo/rest/v1/feed?start_date=1997-03-09&end_date=1997-03-09&detailed=true&api_key=t0TVs3DtDT2H8Oy2Zy8m2eVrNsAVKAexjcZXUckd",
    "prev" : "https://api.nasa.gov/neo/rest/v1/feed?start_date=1997-03-07&end_date=1997-03-07&detailed=true&api_key=t0TVs3DtDT2H8Oy2Zy8m2eVrNsAVKAexjcZXUckd",
    "self" : "https://api.nasa.gov/neo/rest/v1/feed?start_date=1997-03-08&end_date=1997-03-08&detailed=true&api_key=t0TVs3DtDT2H8Oy2Zy8m2eVrNsAVKAexjcZXUckd"
  },
  "element_count" : 8,
  "near_earth_objects" : {
    "1997-03-08" : [ {
      "links" : {
        "self" : "https://api.nasa.gov/neo/rest/v1/neo/3367900?api_key=t0TVs3DtDT2H8Oy2Zy8m2eVrNsAVKAexjcZXUckd"
      },
      "neo_reference_id" : "3367900",
      "name" : "(2007 CM26)",
      "nasa_jpl_url" : "http://ssd.jpl.nasa.gov/sbdb.cgi?sstr=3367900",
      "absolute_magnitude_h" : 25.1,
      "estimated_diameter" : {
        "kilometers" : {
          "estimated_diameter_min" : 0.0253837029,
          "estimated_diameter_max" : 0.0567596853
        },
        "meters" : {
          "estimated_diameter_min" : 25.3837029364,
          "estimated_diameter_max" : 56.7596852866
        },
        "miles" : {
          "estimated_diameter_min" : 0.0157726969,
          "estimated_diameter_max" : 0.0352688224
        },
        "feet" : {
          "estimated_diameter_min" : 83.279867942,
          "estimated_diameter_max" : 186.2194458756
        }
      },
      "is_potentially_hazardous_asteroid" : false,
      "close_approach_data" : [ {
        "close_approach_date" : "1997-03-08",
        "epoch_date_close_approach" : 857808000000,
        "relative_velocity" : {
          "kilometers_per_second" : "14.374248719",
          "kilometers_per_hour" : "51747.295388576",
          "miles_per_hour" : "32153.7569596405"
        },
        "miss_distance" : {
          "astronomical" : "0.2861279559",
          "lunar" : "111.3037719727",
          "kilometers" : "42804132",
          "miles" : "26597256"
        },
        "orbiting_body" : "Earth"
      } ],
      "orbital_data" : {
        "orbit_id" : "8",
        "orbit_determination_date" : "2017-04-06 09:07:02",
        "orbit_uncertainty" : "7",
        "minimum_orbit_intersection" : ".0625089",
        "jupiter_tisserand_invariant" : "6.351",
        "epoch_osculation" : "2458000.5",
        "eccentricity" : ".1801079215882435",
        "semi_major_axis" : ".9426514025783045",
        "inclination" : "7.149034415938549",
        "ascending_node_longitude" : "142.5955768918681",
        "orbital_period" : "334.291322949438",
        "perihelion_distance" : ".7728724176776834",
        "perihelion_argument" : "152.4312432342022",
        "aphelion_distance" : "1.112430387478925",
        "perihelion_time" : "2457951.297406473824",
        "mean_anomaly" : "52.98651940212829",
        "mean_motion" : "1.076905008552826",
        "equinox" : "J2000"
      }
    }, {
      "links" : {
        "self" : "https://api.nasa.gov/neo/rest/v1/neo/3663258?api_key=t0TVs3DtDT2H8Oy2Zy8m2eVrNsAVKAexjcZXUckd"
      },
      "neo_reference_id" : "3663258",
      "name" : "(2014 EL)",
      "nasa_jpl_url" : "http://ssd.jpl.nasa.gov/sbdb.cgi?sstr=3663258",
      "absolute_magnitude_h" : 27.0,
      "estimated_diameter" : {
        "kilometers" : {
          "estimated_diameter_min" : 0.0105816886,
          "estimated_diameter_max" : 0.023661375
        },
        "meters" : {
          "estimated_diameter_min" : 10.5816885933,
          "estimated_diameter_max" : 23.6613750114
        },
        "miles" : {
          "estimated_diameter_min" : 0.0065751544,
          "estimated_diameter_max" : 0.0147024923
        },
        "feet" : {
          "estimated_diameter_min" : 34.7168272045,
          "estimated_diameter_max" : 77.6291855923
        }
      },
      "is_potentially_hazardous_asteroid" : false,
      "close_approach_data" : [ {
        "close_approach_date" : "1997-03-08",
        "epoch_date_close_approach" : 857808000000,
        "relative_velocity" : {
          "kilometers_per_second" : "8.9651943985",
          "kilometers_per_hour" : "32274.6998345267",
          "miles_per_hour" : "20054.2433499591"
        },
        "miss_distance" : {
          "astronomical" : "0.1603051022",
          "lunar" : "62.3586845398",
          "kilometers" : "23981302",
          "miles" : "14901290"
        },
        "orbiting_body" : "Earth"
      } ],
      "orbital_data" : {
        "orbit_id" : "5",
        "orbit_determination_date" : "2017-04-06 08:42:10",
        "orbit_uncertainty" : "6",
        "minimum_orbit_intersection" : ".00868037",
        "jupiter_tisserand_invariant" : "6.367",
        "epoch_osculation" : "2458000.5",
        "eccentricity" : ".3886601532555771",
        "semi_major_axis" : ".9290750404534955",
        "inclination" : "10.32123161510657",
        "ascending_node_longitude" : "164.2426710948232",
        "orbital_period" : "327.0955353193154",
        "perihelion_distance" : ".5679805928449084",
        "perihelion_argument" : "235.4620122293462",
        "aphelion_distance" : "1.290169488062083",
        "perihelion_time" : "2457956.558425439994",
        "mean_anomaly" : "48.3619161177466",
        "mean_motion" : "1.100595884467096",
        "equinox" : "J2000"
      }
    }, {
      "links" : {
        "self" : "https://api.nasa.gov/neo/rest/v1/neo/3745107?api_key=t0TVs3DtDT2H8Oy2Zy8m2eVrNsAVKAexjcZXUckd"
      },
      "neo_reference_id" : "3745107",
      "name" : "(2016 EZ26)",
      "nasa_jpl_url" : "http://ssd.jpl.nasa.gov/sbdb.cgi?sstr=3745107",
      "absolute_magnitude_h" : 22.6,
      "estimated_diameter" : {
        "kilometers" : {
          "estimated_diameter_min" : 0.0802703167,
          "estimated_diameter_max" : 0.1794898848
        },
        "meters" : {
          "estimated_diameter_min" : 80.2703167283,
          "estimated_diameter_max" : 179.4898847799
        },
        "miles" : {
          "estimated_diameter_min" : 0.049877647,
          "estimated_diameter_max" : 0.1115298092
        },
        "feet" : {
          "estimated_diameter_min" : 263.3540659348,
          "estimated_diameter_max" : 588.8775935812
        }
      },
      "is_potentially_hazardous_asteroid" : false,
      "close_approach_data" : [ {
        "close_approach_date" : "1997-03-08",
        "epoch_date_close_approach" : 857808000000,
        "relative_velocity" : {
          "kilometers_per_second" : "21.9020005711",
          "kilometers_per_hour" : "78847.2020560597",
          "miles_per_hour" : "48992.5850775556"
        },
        "miss_distance" : {
          "astronomical" : "0.4534058947",
          "lunar" : "176.3748931885",
          "kilometers" : "67828552",
          "miles" : "42146712"
        },
        "orbiting_body" : "Earth"
      } ],
      "orbital_data" : {
        "orbit_id" : "21",
        "orbit_determination_date" : "2017-08-10 06:19:44",
        "orbit_uncertainty" : "5",
        "minimum_orbit_intersection" : ".00311644",
        "jupiter_tisserand_invariant" : "3.227",
        "epoch_osculation" : "2458000.5",
        "eccentricity" : ".5949944618529281",
        "semi_major_axis" : "2.437341095343046",
        "inclination" : "6.816909153805089",
        "ascending_node_longitude" : "67.30087795887871",
        "orbital_period" : "1389.865879924807",
        "perihelion_distance" : ".987136641967384",
        "perihelion_argument" : "156.9161230212152",
        "aphelion_distance" : "3.887545548718708",
        "perihelion_time" : "2457504.485350775876",
        "mean_anomaly" : "128.4766223128991",
        "mean_motion" : ".2590177981917769",
        "equinox" : "J2000"
      }
    } ]
  }
}